LEMUR-2-PETERG          
1 42841U 17042S   26068.48235713  .00023240  00000+0  81076-3 0  9993
2 42841  97.3980 253.6596 0003700 341.6938  18.4169 15.29611459473171
STARLINK-33889          
1 63829U 25092AB  26068.34189342  .00028067  00000+0  10247-2 0  9990
2 63829  43.0007 174.3274 0000769 289.9216  70.1553 15.27608953 48505
