[{"OBJECT_NAME":"LEMUR-2-PETERG","OBJECT_ID":"2017-042S","EPOCH":"2026-03-09T11:34:35.656032","MEAN_MOTION":15.29611459,"ECCENTRICITY":0.00037,"INCLINATION":97.398,"RA_OF_ASC_NODE":253.6596,"ARG_OF_PERICENTER":341.6938,"MEAN_ANOMALY":18.4169,"EPHEMERIS_TYPE":0,"CLASSIFICATION_TYPE":"U","NORAD_CAT_ID":42841,"ELEMENT_SET_NO":999,"REV_AT_EPOCH":47317,"BSTAR":0.00081076471,"MEAN_MOTION_DOT":0.0002324,"MEAN_MOTION_DDOT":0},{"OBJECT_NAME":"STARLINK-33889","OBJECT_ID":"2025-092AB","EPOCH":"2026-03-09T08:12:19.591488","MEAN_MOTION":15.27608953,"ECCENTRICITY":7.696e-5,"INCLINATION":43.0007,"RA_OF_ASC_NODE":174.3274,"ARG_OF_PERICENTER":289.9216,"MEAN_ANOMALY":70.1553,"EPHEMERIS_TYPE":0,"CLASSIFICATION_TYPE":"U","NORAD_CAT_ID":63829,"ELEMENT_SET_NO":999,"REV_AT_EPOCH":4850,"BSTAR":0.0010246828,"MEAN_MOTION_DOT":0.00028067,"MEAN_MOTION_DDOT":0}]
